KUIPER-00117            
1 65949U 25228C   26201.19148620  .00006164  00000+0  83549-3 0  9992
2 65949  51.8992 132.1496 0000823  47.7141 312.3891 14.79999066 42881
KUIPER-00121            
1 65950U 25228D   26201.16322108  .00001826  00000+0  26842-3 0  9999
2 65950  51.9001 127.2892 0000763  98.0277 262.0772 14.79934509 42950
KUIPER-00122            
1 65951U 25228E   26201.08490411  .00001547  00000+0  23190-3 0  9997
2 65951  51.8998 137.6079 0000872  81.6483 278.4578 14.79937032 42808
KUIPER-00123            
1 65952U 25228F   26201.25370587  .00001714  00000+0  25370-3 0  9996
2 65952  51.8988 136.8728 0000910  67.4892 292.6166 14.79949501 42826
KUIPER-00124            
1 65953U 25228G   26201.19426153  .00001720  00000+0  25449-3 0  9995
2 65953  51.8988 129.6241 0000897  83.3169 276.7895 14.79948853 42927
KUIPER-00125            
1 65954U 25228H   26201.21047915  .00001899  00000+0  27804-3 0  9998
2 65954  51.9013 114.5989 0000889  90.4812 269.6253 14.79938805 43134
KUIPER-00126            
1 65955U 25228J   26201.22264030  .00001840  00000+0  27018-3 0  9992
2 65955  51.8992 134.5300 0000958  84.2662 275.8409 14.79948343 42858
KUIPER-00127            
1 65956U 25228K   26201.21387547  .00001844  00000+0  27087-3 0  9991
2 65956  51.9012 127.0407 0000983  84.3224 275.7850 14.79933386 42963
KUIPER-00128            
1 65957U 25228L   26201.19697149  .00001846  00000+0  27092-3 0  9999
2 65957  51.9010 127.1804 0000934  83.0910 277.0159 14.79950324 42955
KUIPER-00129            
1 65958U 25228M   26200.96601880  .00001633  00000+0  24305-3 0  9999
2 65958  51.9008 123.1825 0000902  89.0022 271.1044 14.79945978 42998
KUIPER-00130            
1 65959U 25228N   26201.19968902  .00001870  00000+0  27425-3 0  9996
2 65959  51.9030 124.6840 0000806  91.9025 268.2030 14.79936082 33285
KUIPER-00134            
1 65960U 25228P   26200.93451135  .00021122  00000+0  49685-3 0  9998
2 65960  51.8723  37.9619 0006614  69.0221 291.1475 15.41911049 44176
KUIPER-00135            
1 65961U 25228Q   26201.16593588  .00001826  00000+0  26842-3 0  9993
2 65961  51.9026 124.8873 0000912  88.3172 271.7895 14.79941121 42987
KUIPER-00136            
1 65962U 25228R   26201.06733064  .00001541  00000+0  23113-3 0  9990
2 65962  51.9012 122.7776 0000928  82.0471 278.0597 14.79937135 43005
KUIPER-00137            
1 65963U 25228S   26201.20502254  .00001859  00000+0  27301-3 0  9997
2 65963  51.9035 119.6640 0001000  85.2065 274.9012 14.79908627 43069
KUIPER-00138            
1 65964U 25228T   26201.17396226  .00001789  00000+0  26357-3 0  9996
2 65964  51.8993 117.2261 0000907  90.5530 269.5536 14.79950586 43091
