{"fetched_at":"2026-07-20T18:28:50.031Z","source":"https://celestrak.org/NORAD/elements/gp.php?GROUP=kuiper&FORMAT=JSON","constellation":"kuiper","records":[{"OBJECT_NAME":"KUIPER-00117","OBJECT_ID":"2025-228C","EPOCH":"2026-07-20T04:35:44.407680","CLASSIFICATION_TYPE":"U","MEAN_MOTION":14.79999066,"ECCENTRICITY":0.00008231,"INCLINATION":51.8992,"RA_OF_ASC_NODE":132.1496,"ARG_OF_PERICENTER":47.7141,"MEAN_ANOMALY":312.3891,"EPHEMERIS_TYPE":0,"NORAD_CAT_ID":65949,"ELEMENT_SET_NO":999,"REV_AT_EPOCH":4288,"BSTAR":0.00083549085,"MEAN_MOTION_DOT":0.00006164,"MEAN_MOTION_DDOT":0},{"OBJECT_NAME":"KUIPER-00121","OBJECT_ID":"2025-228D","EPOCH":"2026-07-20T03:55:02.301312","CLASSIFICATION_TYPE":"U","MEAN_MOTION":14.79934509,"ECCENTRICITY":0.00007633,"INCLINATION":51.9001,"RA_OF_ASC_NODE":127.2892,"ARG_OF_PERICENTER":98.0277,"MEAN_ANOMALY":262.0772,"EPHEMERIS_TYPE":0,"NORAD_CAT_ID":65950,"ELEMENT_SET_NO":999,"REV_AT_EPOCH":4295,"BSTAR":0.00026841508,"MEAN_MOTION_DOT":0.00001826,"MEAN_MOTION_DDOT":0},{"OBJECT_NAME":"KUIPER-00122","OBJECT_ID":"2025-228E","EPOCH":"2026-07-20T02:02:15.715104","CLASSIFICATION_TYPE":"U","MEAN_MOTION":14.79937032,"ECCENTRICITY":0.00008723,"INCLINATION":51.8998,"RA_OF_ASC_NODE":137.6079,"ARG_OF_PERICENTER":81.6483,"MEAN_ANOMALY":278.4578,"EPHEMERIS_TYPE":0,"NORAD_CAT_ID":65951,"ELEMENT_SET_NO":999,"REV_AT_EPOCH":4280,"BSTAR":0.00023190034,"MEAN_MOTION_DOT":0.00001547,"MEAN_MOTION_DDOT":0},{"OBJECT_NAME":"KUIPER-00123","OBJECT_ID":"2025-228F","EPOCH":"2026-07-20T06:05:20.187168","CLASSIFICATION_TYPE":"U","MEAN_MOTION":14.79949501,"ECCENTRICITY":0.00009103,"INCLINATION":51.8988,"RA_OF_ASC_NODE":136.8728,"ARG_OF_PERICENTER":67.4892,"MEAN_ANOMALY":292.6166,"EPHEMERIS_TYPE":0,"NORAD_CAT_ID":65952,"ELEMENT_SET_NO":999,"REV_AT_EPOCH":4282,"BSTAR":0.00025370339,"MEAN_MOTION_DOT":0.00001714,"MEAN_MOTION_DDOT":0},{"OBJECT_NAME":"KUIPER-00124","OBJECT_ID":"2025-228G","EPOCH":"2026-07-20T04:39:44.196192","CLASSIFICATION_TYPE":"U","MEAN_MOTION":14.79948853,"ECCENTRICITY":0.00008974,"INCLINATION":51.8988,"RA_OF_ASC_NODE":129.6241,"ARG_OF_PERICENTER":83.3169,"MEAN_ANOMALY":276.7895,"EPHEMERIS_TYPE":0,"NORAD_CAT_ID":65953,"ELEMENT_SET_NO":999,"REV_AT_EPOCH":4292,"BSTAR":0.00025448705,"MEAN_MOTION_DOT":0.0000172,"MEAN_MOTION_DDOT":0},{"OBJECT_NAME":"KUIPER-00125","OBJECT_ID":"2025-228H","EPOCH":"2026-07-20T05:03:05.398560","CLASSIFICATION_TYPE":"U","MEAN_MOTION":14.79938805,"ECCENTRICITY":0.00008897,"INCLINATION":51.9013,"RA_OF_ASC_NODE":114.5989,"ARG_OF_PERICENTER":90.4812,"MEAN_ANOMALY":269.6253,"EPHEMERIS_TYPE":0,"NORAD_CAT_ID":65954,"ELEMENT_SET_NO":999,"REV_AT_EPOCH":4313,"BSTAR":0.00027804417,"MEAN_MOTION_DOT":0.00001899,"MEAN_MOTION_DDOT":0},{"OBJECT_NAME":"KUIPER-00126","OBJECT_ID":"2025-228J","EPOCH":"2026-07-20T05:20:36.121920","CLASSIFICATION_TYPE":"U","MEAN_MOTION":14.79948343,"ECCENTRICITY":0.00009585,"INCLINATION":51.8992,"RA_OF_ASC_NODE":134.53,"ARG_OF_PERICENTER":84.2662,"MEAN_ANOMALY":275.8409,"EPHEMERIS_TYPE":0,"NORAD_CAT_ID":65955,"ELEMENT_SET_NO":999,"REV_AT_EPOCH":4285,"BSTAR":0.00027018095,"MEAN_MOTION_DOT":0.0000184,"MEAN_MOTION_DDOT":0},{"OBJECT_NAME":"KUIPER-00127","OBJECT_ID":"2025-228K","EPOCH":"2026-07-20T05:07:58.840608","CLASSIFICATION_TYPE":"U","MEAN_MOTION":14.79933386,"ECCENTRICITY":0.00009832,"INCLINATION":51.9012,"RA_OF_ASC_NODE":127.0407,"ARG_OF_PERICENTER":84.3224,"MEAN_ANOMALY":275.785,"EPHEMERIS_TYPE":0,"NORAD_CAT_ID":65956,"ELEMENT_SET_NO":999,"REV_AT_EPOCH":4296,"BSTAR":0.00027087479,"MEAN_MOTION_DOT":0.00001844,"MEAN_MOTION_DDOT":0},{"OBJECT_NAME":"KUIPER-00128","OBJECT_ID":"2025-228L","EPOCH":"2026-07-20T04:43:38.336736","CLASSIFICATION_TYPE":"U","MEAN_MOTION":14.79950324,"ECCENTRICITY":0.00009347,"INCLINATION":51.901,"RA_OF_ASC_NODE":127.1804,"ARG_OF_PERICENTER":83.091,"MEAN_ANOMALY":277.0159,"EPHEMERIS_TYPE":0,"NORAD_CAT_ID":65957,"ELEMENT_SET_NO":999,"REV_AT_EPOCH":4295,"BSTAR":0.00027092293,"MEAN_MOTION_DOT":0.00001846,"MEAN_MOTION_DDOT":0},{"OBJECT_NAME":"KUIPER-00129","OBJECT_ID":"2025-228M","EPOCH":"2026-07-19T23:11:04.024320","CLASSIFICATION_TYPE":"U","MEAN_MOTION":14.79945978,"ECCENTRICITY":0.00009022,"INCLINATION":51.9008,"RA_OF_ASC_NODE":123.1825,"ARG_OF_PERICENTER":89.0022,"MEAN_ANOMALY":271.1044,"EPHEMERIS_TYPE":0,"NORAD_CAT_ID":65958,"ELEMENT_SET_NO":999,"REV_AT_EPOCH":4299,"BSTAR":0.00024305282,"MEAN_MOTION_DOT":0.00001633,"MEAN_MOTION_DDOT":0},{"OBJECT_NAME":"KUIPER-00130","OBJECT_ID":"2025-228N","EPOCH":"2026-07-20T04:47:33.131328","CLASSIFICATION_TYPE":"U","MEAN_MOTION":14.79936082,"ECCENTRICITY":0.00008064,"INCLINATION":51.903,"RA_OF_ASC_NODE":124.684,"ARG_OF_PERICENTER":91.9025,"MEAN_ANOMALY":268.203,"EPHEMERIS_TYPE":0,"NORAD_CAT_ID":65959,"ELEMENT_SET_NO":999,"REV_AT_EPOCH":3328,"BSTAR":0.00027425397,"MEAN_MOTION_DOT":0.0000187,"MEAN_MOTION_DDOT":0},{"OBJECT_NAME":"KUIPER-00134","OBJECT_ID":"2025-228P","EPOCH":"2026-07-19T22:25:41.780640","CLASSIFICATION_TYPE":"U","MEAN_MOTION":15.41911049,"ECCENTRICITY":0.00066143,"INCLINATION":51.8723,"RA_OF_ASC_NODE":37.9619,"ARG_OF_PERICENTER":69.0221,"MEAN_ANOMALY":291.1475,"EPHEMERIS_TYPE":0,"NORAD_CAT_ID":65960,"ELEMENT_SET_NO":999,"REV_AT_EPOCH":4417,"BSTAR":0.00049685282,"MEAN_MOTION_DOT":0.00021122,"MEAN_MOTION_DDOT":0},{"OBJECT_NAME":"KUIPER-00135","OBJECT_ID":"2025-228Q","EPOCH":"2026-07-20T03:58:56.860032","CLASSIFICATION_TYPE":"U","MEAN_MOTION":14.79941121,"ECCENTRICITY":0.00009124,"INCLINATION":51.9026,"RA_OF_ASC_NODE":124.8873,"ARG_OF_PERICENTER":88.3172,"MEAN_ANOMALY":271.7895,"EPHEMERIS_TYPE":0,"NORAD_CAT_ID":65961,"ELEMENT_SET_NO":999,"REV_AT_EPOCH":4298,"BSTAR":0.00026842447,"MEAN_MOTION_DOT":0.00001826,"MEAN_MOTION_DDOT":0},{"OBJECT_NAME":"KUIPER-00136","OBJECT_ID":"2025-228R","EPOCH":"2026-07-20T01:36:57.367296","CLASSIFICATION_TYPE":"U","MEAN_MOTION":14.79937135,"ECCENTRICITY":0.00009287,"INCLINATION":51.9012,"RA_OF_ASC_NODE":122.7776,"ARG_OF_PERICENTER":82.0471,"MEAN_ANOMALY":278.0597,"EPHEMERIS_TYPE":0,"NORAD_CAT_ID":65962,"ELEMENT_SET_NO":999,"REV_AT_EPOCH":4300,"BSTAR":0.00023113043,"MEAN_MOTION_DOT":0.00001541,"MEAN_MOTION_DDOT":0},{"OBJECT_NAME":"KUIPER-00137","OBJECT_ID":"2025-228S","EPOCH":"2026-07-20T04:55:13.947456","CLASSIFICATION_TYPE":"U","MEAN_MOTION":14.79908627,"ECCENTRICITY":0.00010009,"INCLINATION":51.9035,"RA_OF_ASC_NODE":119.664,"ARG_OF_PERICENTER":85.2065,"MEAN_ANOMALY":274.9012,"EPHEMERIS_TYPE":0,"NORAD_CAT_ID":65963,"ELEMENT_SET_NO":999,"REV_AT_EPOCH":4306,"BSTAR":0.00027301049,"MEAN_MOTION_DOT":0.00001859,"MEAN_MOTION_DDOT":0},{"OBJECT_NAME":"KUIPER-00138","OBJECT_ID":"2025-228T","EPOCH":"2026-07-20T04:10:30.339264","CLASSIFICATION_TYPE":"U","MEAN_MOTION":14.79950586,"ECCENTRICITY":0.00009073,"INCLINATION":51.8993,"RA_OF_ASC_NODE":117.2261,"ARG_OF_PERICENTER":90.553,"MEAN_ANOMALY":269.5536,"EPHEMERIS_TYPE":0,"NORAD_CAT_ID":65964,"ELEMENT_SET_NO":999,"REV_AT_EPOCH":4309,"BSTAR":0.00026356651,"MEAN_MOTION_DOT":0.00001789,"MEAN_MOTION_DDOT":0}]}
